1 45367U 20019H   22365.19324345  .00021442  00000-0  14528-2 0  9991
2 45367  53.0562 354.2501 0001982  47.3628 312.7528 15.06430607154211
1 45367U 20019H   22365.52497075  .00007689  00000-0  53412-3 0  9992
2 45367  53.0561 352.7609 0001594  65.7674 294.3482 15.06427431154266
1 45367U 20019H   22365.52497075  .00007689  00000-0  53412-3 0  9992
2 45367  53.0561 352.7609 0001594  65.7674 294.3482 15.06427431154266
1 45367U 20019H   23001.25478592 -.00008618  00000-0 -56041-3 0  9999
2 45367  53.0563 349.4844 0001818  43.0256 317.0875 15.06393444154373
1 45367U 20019H   23001.38748362  .00010962  00000-0  75403-3 0  9994
2 45367  53.0562 348.8899 0001864  43.4978 316.6158 15.06382763154394
1 45367U 20019H   23001.65287421  .00017346  00000-0  11810-2 0  9992
2 45367  53.0562 347.6982 0001854  42.9161 317.1972 15.06383897154435
1 45367U 20019H   23002.31634338  .00018497  00000-0  12571-2 0  9992
2 45367  53.0568 344.7197 0001927  45.7812 314.3335 15.06408402154535
1 45367U 20019H   23002.31634338  .00018497  00000-0  12571-2 0  9992
2 45367  53.0568 344.7197 0001927  45.7812 314.3335 15.06408402154535
1 45367U 20019H   23003.31155097  .00009397  00000-0  64889-3 0  9992
2 45367  53.0561 340.2516 0002276  50.3288 309.7902 15.06402521154681
1 45367U 20019H   23003.31155097  .00009397  00000-0  64889-3 0  9992
2 45367  53.0561 340.2516 0002276  50.3288 309.7902 15.06402521154681
1 45367U 20019H   23003.64328338  .00004579  00000-0  32611-3 0  9993
2 45367  53.0556 338.7630 0001718  46.1033 314.0097 15.06397245154731
1 45367U 20019H   23004.10771490  .00002231  00000-0  16866-3 0  9993
2 45367  53.0564 336.6764 0001771  50.4987 309.6159 15.06392617154805
1 45367U 20019H   23004.30675523  .00003356  00000-0  24410-3 0  9998
2 45367  53.0566 335.7832 0001880  50.7934 309.3221 15.06397836154837
1 45367U 20019H   23004.63848571  .00008665  00000-0  59969-3 0  9994
2 45367  53.0569 334.2953 0001883  50.7623 309.3533 15.06411722154888
1 45367U 20019H   23005.30194840  .00010482  00000-0  72112-3 0  9997
2 45367  53.0572 331.3165 0001954  53.1527 306.9641 15.06421682154984
1 45367U 20019H   23005.63367749  .00008987  00000-0  62100-3 0  9996
2 45367  53.0569 329.8273 0001980  53.7827 306.3345 15.06425705155032
1 45367U 20019H   23006.29714600 -.00001912  00000-0 -10951-3 0  9991
2 45367  53.0579 326.8497 0001628  33.6105 326.4987 15.06398361155136
1 45367U 20019H   23006.89427484  .00004374  00000-0  31244-3 0  9999
2 45367  53.0575 324.1694 0001707  35.1237 324.9865 15.06387788155222
1 45367U 20019H   23007.22600536  .00010329  00000-0  71112-3 0  9993
2 45367  53.0571 322.6792 0001786  47.6543 312.4597 15.06409912155278
1 45367U 20019H   23007.88948435  .00006485  00000-0  45391-3 0  9996
2 45367  53.0563 319.7015 0002628  58.6069 301.5177 15.06393902155370
1 45367U 20019H   23008.22122205  .00000577  00000-0  57684-4 0  9999
2 45367  53.0571 318.2146 0001837  59.7635 300.3535 15.06386048155424
1 45367U 20019H   23008.55295619  .00007749  00000-0  53858-3 0  9991
2 45367  53.0569 316.7243 0001836  56.3707 303.7457 15.06398503155478
1 45367U 20019H   23008.88469309  .00010875  00000-0  74785-3 0  9992
2 45367  53.0573 315.2351 0001854  60.2480 299.8693 15.06398714155526
1 45367U 20019H   23009.21642542  .00011594  00000-0  79580-3 0  9999
2 45367  53.0576 313.7460 0001898  60.9105 299.2074 15.06408330155570
1 45367U 20019H   23009.54815837  .00007417  00000-0  51618-3 0  9995
2 45367  53.0565 312.2565 0001909  58.2646 301.8529 15.06408109155626
1 45367U 20019H   23009.54815837  .00007417  00000-0  51618-3 0  9995
2 45367  53.0565 312.2565 0001909  58.2646 301.8529 15.06408109155626
1 45367U 20019H   23010.21162673  .00003128  00000-0  22882-3 0  9990
2 45367  53.0563 309.2781 0001796  54.7299 305.3858 15.06402458155725
1 45367U 20019H   23010.54336017  .00001953  00000-0  14997-3 0  9993
2 45367  53.0562 307.7892 0001779  55.1565 304.9591 15.06402254155770
1 45367U 20019H   23011.07413684  .00000217  00000-0  33499-4 0  9999
2 45367  53.0566 305.4063 0001784  57.6524 302.4638 15.06400076155851
1 45367U 20019H   23011.07413684  .00000217  00000-0  33499-4 0  9999
2 45367  53.0566 305.4063 0001784  57.6524 302.4638 15.06400076155851
1 45367U 20019H   23011.80394114  .00004217  00000-0  30172-3 0  9994
2 45367  53.0575 302.1308 0001857  60.0489 300.0684 15.06416046155967
1 45367U 20019H   23011.80394114  .00004217  00000-0  30172-3 0  9994
2 45367  53.0575 302.1308 0001857  60.0489 300.0684 15.06416046155967
1 45367U 20019H   23012.79915336 -.00001405  00000-0 -75456-4 0  9991
2 45367  53.0553 297.6629 0001230  68.7505 291.3615 15.06390605156112
1 45367U 20019H   23012.93185185 -.00009558  00000-0 -62412-3 0  9992
2 45367  53.0555 297.0672 0001209  59.9616 300.1493 15.06370725156133
1 45367U 20019H   23013.06454463 -.00009161  00000-0 -59748-3 0  9993
2 45367  53.0562 296.4721 0001342  72.2870 287.8265 15.06364920156157
1 45367U 20019H   23013.06454463 -.00009161  00000-0 -59748-3 0  9993
2 45367  53.0562 296.4721 0001342  72.2870 287.8265 15.06364920156157
1 45367U 20019H   23013.79437235  .00025961  00000-0  17556-2 0  9995
2 45367  53.0556 293.1961 0001290  81.3169 278.7966 15.06394908156262
1 45367U 20019H   23013.79437235  .00025961  00000-0  17556-2 0  9995
2 45367  53.0556 293.1961 0001290  81.3169 278.7966 15.06394908156262
1 45367U 20019H   23014.19244595  .00043841  00000-0  29406-2 0  9999
2 45367  53.0548 291.4085 0001277  84.2743 275.8392 15.06441577156329
1 45367U 20019H   23014.45783669  .00005626  00000-0  39617-3 0  9993
2 45367  53.0534 290.2136 0002125  78.9605 281.1623 15.06414590156364
1 45367U 20019H   23015.18764965  .00010574  00000-0  72739-3 0  9992
2 45367  53.0544 286.9402 0001516  95.5289 264.5873 15.06414143156477
1 45367U 20019H   23015.45303972  .00011431  00000-0  78487-3 0  9998
2 45367  53.0535 285.7484 0001659  92.5550 267.5628 15.06408305156519
1 45367U 20019H   23015.45303972  .00011431  00000-0  78487-3 0  9998
2 45367  53.0535 285.7484 0001659  92.5550 267.5628 15.06408305156519
1 45367U 20019H   23015.91746572  .00011341  00000-0  77876-3 0  9997
2 45367  53.0534 283.6642 0001592  92.6144 267.5027 15.06411559156582
1 45367U 20019H   23016.44824329  .00002323  00000-0  17483-3 0  9991
2 45367  53.0531 281.2784 0001772  79.6232 280.4956 15.06398476156669
1 45367U 20019H   23016.44824329  .00002323  00000-0  17483-3 0  9991
2 45367  53.0531 281.2784 0001772  79.6232 280.4956 15.06398476156669
1 45367U 20019H   23016.71363522 -.00009072  00000-0 -59131-3 0  9990
2 45367  53.0525 280.0890 0001421  84.8893 275.2258 15.06373419156701
1 45367U 20019H   23016.71363522 -.00009072  00000-0 -59131-3 0  9990
2 45367  53.0525 280.0890 0001421  84.8893 275.2258 15.06373419156701
1 45367U 20019H   23017.11172166  .00001147  00000-0  95903-4 0  9998
2 45367  53.0529 278.3019 0001307  83.6652 276.4485 15.06385328156764
1 45367U 20019H   23017.44345933  .00015908  00000-0  10847-2 0  9990
2 45367  53.0536 276.8135 0001289  79.9688 280.1447 15.06390735156814
1 45367U 20019H   23017.90788481  .00020959  00000-0  14212-2 0  9992
2 45367  53.0537 274.7287 0001298  77.7732 282.3402 15.06414319156883
1 45367U 20019H   23017.97423050  .00022266  00000-0  15082-2 0  9996
2 45367  53.0536 274.4313 0001311  77.4098 282.7038 15.06419533156890
1 45367U 20019H   23018.43865734  .00027480  00000-0  18553-2 0  9996
2 45367  53.0540 272.3464 0001571  65.2020 294.9132 15.06424664156966
1 45367U 20019H   23018.43865734  .00027480  00000-0  18553-2 0  9996
2 45367  53.0540 272.3464 0001571  65.2020 294.9132 15.06424664156966
1 45367U 20019H   23018.90308293  .00024726  00000-0  16723-2 0  9997
2 45367  53.0538 270.2615 0001295  97.2256 262.8880 15.06416482157039
1 45367U 20019H   23018.90308293  .00024726  00000-0  16723-2 0  9997
2 45367  53.0538 270.2615 0001295  97.2256 262.8880 15.06416482157039
1 45367U 20019H   23019.10212191  .00023247  00000-0  15736-2 0  9991
2 45367  53.0538 269.3675 0001404  86.8061 273.3088 15.06419707157067
1 45367U 20019H   23019.96463850  .00021659  00000-0  14685-2 0  9992
2 45367  53.0534 265.4950 0001119  75.9899 284.1215 15.06399310157190
1 45367U 20019H   23020.36272007  .00010996  00000-0  75597-3 0  9992
2 45367  53.0529 263.7082 0001102  76.0927 284.0185 15.06399362157256
1 45367U 20019H   23020.36272007  .00010996  00000-0  75597-3 0  9992
2 45367  53.0529 263.7082 0001102  76.0927 284.0185 15.06399362157256
1 45367U 20019H   23021.35792197  .00004273  00000-0  30555-3 0  9995
2 45367  53.0532 259.2422 0001310  86.0217 274.0921 15.06402758157400
1 45367U 20019H   23021.88869690  .00001607  00000-0  12673-3 0  9995
2 45367  53.0532 256.8597 0001337  87.0819 273.0323 15.06399860157486
1 45367U 20019H   23023.01659256  .00001036  00000-0  88459-4 0  9999
2 45367  53.0528 251.7943 0001285  91.1255 268.9881 15.06402466157650
1 45367U 20019H   23023.81276141  .00003758  00000-0  27109-3 0  9992
2 45367  53.0536 248.2183 0001096  92.4235 267.6880 15.06392270157777
1 45367U 20019H   23023.87910302  .00000187  00000-0  31471-4 0  9993
2 45367  53.0536 247.9203 0001079  91.6427 268.4686 15.06400913157789
1 45367U 20019H   23025.00699528  .00002992  00000-0  21963-3 0  9994
2 45367  53.0519 242.8585 0000982  90.0336 270.0765 15.06407780157956
1 45367U 20019H   23025.00699528  .00002992  00000-0  21963-3 0  9994
2 45367  53.0519 242.8585 0000982  90.0336 270.0765 15.06407780157956
1 45367U 20019H   23025.60411910  .00000061  00000-0  23022-4 0  9991
2 45367  53.0535 240.1725 0001333  97.7642 262.3498 15.06394540158043
1 45367U 20019H   23025.80316148  .00000949  00000-0  82607-4 0  9999
2 45367  53.0533 239.2777 0001164 113.0223 247.0889 15.06396497158076
1 45367U 20019H   23026.00220395 -.00000439  00000-0 -10602-4 0  9992
2 45367  53.0535 238.3863 0001037 118.3886 241.7207 15.06398531158106
1 45367U 20019H   23026.93105370  .00000788  00000-0  71784-4 0  9992
2 45367  53.0532 234.2194 0000906  82.7553 277.3539 15.06407756158242
1 45367U 20019H   23027.52819154  .00002874  00000-0  21186-3 0  9998
2 45367  53.0536 231.5392 0001099  92.5085 267.6030 15.06383056158333
1 45367U 20019H   23027.52819154  .00002874  00000-0  21186-3 0  9998
2 45367  53.0536 231.5392 0001099  92.5085 267.6030 15.06383056158333
1 45367U 20019H   23027.79357221  .00000996  00000-0  85746-4 0  9995
2 45367  53.0536 230.3475 0001038  85.4948 274.6159 15.06395394158376
1 45367U 20019H   23027.85991931  .00000993  00000-0  85516-4 0  9996
2 45367  53.0531 230.0497 0001031  75.0626 285.0477 15.06395419158381
1 45367U 20019H   23028.58973321  .00001860  00000-0  14372-3 0  9995
2 45367  53.0527 226.7737 0001160 103.5358 256.5760 15.06394300158495
1 45367U 20019H   23028.85511706  .00000575  00000-0  57470-4 0  9999
2 45367  53.0537 225.5827 0001050  88.8590 271.2519 15.06404605158535
1 45367U 20019H   23028.92146342  .00000827  00000-0  74420-4 0  9991
2 45367  53.0531 225.2846 0001060  85.4005 274.7105 15.06404702158540
1 45367U 20019H   23029.51859070  .00001159  00000-0  96662-4 0  9997
2 45367  53.0530 222.6040 0001105  92.0925 268.0190 15.06394900158639
1 45367U 20019H   23029.91667037  .00001178  00000-0  97979-4 0  9994
2 45367  53.0532 220.8169 0001123  90.4090 269.7028 15.06397202158690
1 45367U 20019H   23030.51379462  .00000395  00000-0  45433-4 0  9992
2 45367  53.0530 218.1363 0001132  90.0013 270.1105 15.06395236158782
1 45367U 20019H   23030.77918132  .00000202  00000-0  32471-4 0  9998
2 45367  53.0531 216.9450 0001139  89.2827 270.8292 15.06396605158826
1 45367U 20019H   23030.77918132  .00000202  00000-0  32471-4 0  9998
2 45367  53.0531 216.9450 0001139  89.2827 270.8292 15.06396605158826
1 45367U 20019H   23031.50899314  .00001048  00000-0  89266-4 0  9993
2 45367  53.0533 213.6685 0001156  88.8023 271.3098 15.06399094158931
1 45367U 20019H   23031.77437849  .00001252  00000-0  10294-3 0  9994
2 45367  53.0533 212.4771 0001154  88.6731 271.4390 15.06401294158972
